0 CZ-4 DEB
1 20866U 90081AE  13283.07606141  .00000309  00000-0  21696-3 0  4200
2 20866 098.9096 322.0164 0071597 002.1715 050.5765 14.04359679176648
0 CZ-4 DEB
1 20866U 90081AE  13286.07092700  .00000496  00000-0  33166-3 0  4216
2 20866 098.9089 324.9549 0071465 353.7103 071.8201 14.04360583177062
0 CZ-4 DEB
1 20866U 90081AE  13287.71927052  .00000593  00000-0  39116-3 0  4225
2 20866 098.9086 326.5722 0071405 349.0740 125.3901 14.04362404177290
0 CZ-4 DEB
1 20866U 90081AE  13289.05603815  .00000595  00000-0  39251-3 0  4235
2 20866 098.9084 327.8836 0071367 345.3067 043.7329 14.04364678177489
0 CZ-4 DEB
1 20866U 90081AE  13290.05987545  .00000558  00000-0  37000-3 0  4242
2 20866 098.9083 328.8685 0071333 342.5008 078.8505 14.04366190177620
0 CZ-4 DEB
1 20866U 90081AE  13291.34199340  .00000507  00000-0  33818-3 0  4251
2 20866 098.9082 330.1261 0071291 338.9116 080.8891 14.04368255177802
0 CZ-4 DEB
1 20866U 90081AE  13293.05103155  .00000449  00000-0  30262-3 0  4266
2 20866 098.9082 331.8026 0071224 334.1329 081.3271 14.04370851178049
0 CZ-4 DEB
1 20866U 90081AE  13294.12141924  .00000384  00000-0  26279-3 0  4273
2 20866 098.9082 332.8526 0071181 331.1312 092.9357 14.04372530178191
0 CZ-4 DEB
1 20866U 90081AE  13296.11533388  .00000306  00000-0  21526-3 0  4288
2 20866 098.9082 334.8086 0071081 325.5252 093.6940 14.04375196178471
